STARLINK-1510           
1 45784U 20038BG  25334.25002315  .00246626  00000+0  10849-2 0  9995
2 45784  53.0255 189.5693 0003550 164.9564 176.0023 15.83347165  5972
STARLINK-1513           
1 45786U 20038BJ  25334.12837403  .00000580  00000+0  57863-4 0  9993
2 45786  53.0555 283.5665 0001500  89.7869 270.3292 15.06399168301752
STARLINK-1522           
1 46027U 20055A   25334.04268522  .00003313  00000+0  24119-3 0  9996
2 46027  53.0544 213.9506 0001426  94.0883 266.0269 15.06403237293863
STARLINK-1523           
1 46028U 20055B   25334.05743735  .00008175  00000+0  56716-3 0  9991
2 46028  53.0552 213.8880 0001644  92.7978 267.3200 15.06395530293886
STARLINK-1526           
1 46029U 20055C   25334.11640519  .00004603  00000+0  32763-3 0  9993
2 46029  53.0536 213.6181 0001479  91.4172 268.6986 15.06410325293884
STARLINK-1555           
1 46032U 20055F   25334.10165887  .00002377  00000+0  17842-3 0  9993
2 46032  53.0552 213.6844 0001501  86.9746 273.1414 15.06395607293886
STARLINK-1556           
1 46033U 20055G   25334.08323293  .00007695  00000+0  53486-3 0  9990
2 46033  53.0536 213.7686 0001784  87.3232 272.7961 15.06404068293853
STARLINK-1557           
1 46034U 20055H   25334.08690757  .00001336  00000+0  10859-3 0  9996
2 46034  53.0532 213.7504 0001384  92.5478 267.5670 15.06401550293857
STARLINK-1558           
1 46035U 20055J   25334.09428632  .00004893  00000+0  34706-3 0  9997
2 46035  53.0534 213.7210 0001616  91.0111 269.1063 15.06409415293885
STARLINK-1560           
1 46036U 20055K   25334.07954757  .00005851  00000+0  41127-3 0  9998
2 46036  53.0534 213.7879 0001684  85.5807 274.5375 15.06407951293881
STARLINK-1567           
1 46038U 20055M   25334.09060103  .00005155  00000+0  36463-3 0  9999
2 46038  53.0527 213.7368 0001576  93.4094 266.7076 15.06411134293872
STARLINK-1569           
1 46039U 20055N   25333.96528016  .00003078  00000+0  22537-3 0  9996
2 46039  53.0546 214.2997 0001607  91.8907 268.2266 15.06409712293853
STARLINK-1582           
1 46043U 20055S   25334.10534083  .00001702  00000+0  13309-3 0  9998
2 46043  53.0538 213.6690 0001568 106.8255 253.2906 15.06403628293878
STARLINK-1591           
1 46045U 20055U   25333.93210708  .00002601  00000+0  19346-3 0  9991
2 46045  53.0535 214.4480 0001414  87.3978 272.7172 15.06401538293833
STARLINK-1524           
1 46047U 20055W   25334.08414859  .00001215  00000+0  10043-3 0  9998
2 46047  53.0528 203.7654 0001489 108.6682 251.4469 15.06417925294013
STARLINK-1527           
1 46048U 20055X   25334.08046642  .00003475  00000+0  25200-3 0  9991
2 46048  53.0535 203.7815 0001559  93.9805 266.1362 15.06411399293992
STARLINK-1540           
1 46051U 20055AA  25333.91459274  .00003241  00000+0  23634-3 0  9995
2 46051  53.0527 204.5263 0001612  88.4416 271.6757 15.06404974294003
