[{"OBJECT_NAME":"STARLINK-1510","OBJECT_ID":"2020-038BG","EPOCH":"2025-11-30T06:00:02.000160","MEAN_MOTION":15.83347165,"ECCENTRICITY":0.000355,"INCLINATION":53.0255,"RA_OF_ASC_NODE":189.5693,"ARG_OF_PERICENTER":164.9564,"MEAN_ANOMALY":176.0023,"EPHEMERIS_TYPE":0,"CLASSIFICATION_TYPE":"U","NORAD_CAT_ID":45784,"ELEMENT_SET_NO":999,"REV_AT_EPOCH":597,"BSTAR":0.0010849,"MEAN_MOTION_DOT":0.00246626,"MEAN_MOTION_DDOT":0},{"OBJECT_NAME":"STARLINK-1513","OBJECT_ID":"2020-038BJ","EPOCH":"2025-11-30T03:04:51.516192","MEAN_MOTION":15.06399168,"ECCENTRICITY":0.00015,"INCLINATION":53.0555,"RA_OF_ASC_NODE":283.5665,"ARG_OF_PERICENTER":89.7869,"MEAN_ANOMALY":270.3292,"EPHEMERIS_TYPE":0,"CLASSIFICATION_TYPE":"U","NORAD_CAT_ID":45786,"ELEMENT_SET_NO":999,"REV_AT_EPOCH":30175,"BSTAR":5.7863e-5,"MEAN_MOTION_DOT":5.8e-6,"MEAN_MOTION_DDOT":0},{"OBJECT_NAME":"STARLINK-1522","OBJECT_ID":"2020-055A","EPOCH":"2025-11-30T01:01:28.003008","MEAN_MOTION":15.06403237,"ECCENTRICITY":0.0001426,"INCLINATION":53.0544,"RA_OF_ASC_NODE":213.9506,"ARG_OF_PERICENTER":94.0883,"MEAN_ANOMALY":266.0269,"EPHEMERIS_TYPE":0,"CLASSIFICATION_TYPE":"U","NORAD_CAT_ID":46027,"ELEMENT_SET_NO":999,"REV_AT_EPOCH":29386,"BSTAR":0.00024119,"MEAN_MOTION_DOT":3.313e-5,"MEAN_MOTION_DDOT":0},{"OBJECT_NAME":"STARLINK-1523","OBJECT_ID":"2020-055B","EPOCH":"2025-11-30T01:22:42.587040","MEAN_MOTION":15.0639553,"ECCENTRICITY":0.0001644,"INCLINATION":53.0552,"RA_OF_ASC_NODE":213.888,"ARG_OF_PERICENTER":92.7978,"MEAN_ANOMALY":267.32,"EPHEMERIS_TYPE":0,"CLASSIFICATION_TYPE":"U","NORAD_CAT_ID":46028,"ELEMENT_SET_NO":999,"REV_AT_EPOCH":29388,"BSTAR":0.00056716,"MEAN_MOTION_DOT":8.175e-5,"MEAN_MOTION_DDOT":0},{"OBJECT_NAME":"STARLINK-1526","OBJECT_ID":"2020-055C","EPOCH":"2025-11-30T02:47:37.408416","MEAN_MOTION":15.06410325,"ECCENTRICITY":0.0001479,"INCLINATION":53.0536,"RA_OF_ASC_NODE":213.6181,"ARG_OF_PERICENTER":91.4172,"MEAN_ANOMALY":268.6986,"EPHEMERIS_TYPE":0,"CLASSIFICATION_TYPE":"U","NORAD_CAT_ID":46029,"ELEMENT_SET_NO":999,"REV_AT_EPOCH":29388,"BSTAR":0.00032763,"MEAN_MOTION_DOT":4.603e-5,"MEAN_MOTION_DDOT":0},{"OBJECT_NAME":"STARLINK-1555","OBJECT_ID":"2020-055F","EPOCH":"2025-11-30T02:26:23.326368","MEAN_MOTION":15.06395607,"ECCENTRICITY":0.0001501,"INCLINATION":53.0552,"RA_OF_ASC_NODE":213.6844,"ARG_OF_PERICENTER":86.9746,"MEAN_ANOMALY":273.1414,"EPHEMERIS_TYPE":0,"CLASSIFICATION_TYPE":"U","NORAD_CAT_ID":46032,"ELEMENT_SET_NO":999,"REV_AT_EPOCH":29388,"BSTAR":0.00017842,"MEAN_MOTION_DOT":2.377e-5,"MEAN_MOTION_DDOT":0},{"OBJECT_NAME":"STARLINK-1556","OBJECT_ID":"2020-055G","EPOCH":"2025-11-30T01:59:51.325152","MEAN_MOTION":15.06404068,"ECCENTRICITY":0.0001784,"INCLINATION":53.0536,"RA_OF_ASC_NODE":213.7686,"ARG_OF_PERICENTER":87.3232,"MEAN_ANOMALY":272.7961,"EPHEMERIS_TYPE":0,"CLASSIFICATION_TYPE":"U","NORAD_CAT_ID":46033,"ELEMENT_SET_NO":999,"REV_AT_EPOCH":29385,"BSTAR":0.00053486,"MEAN_MOTION_DOT":7.695e-5,"MEAN_MOTION_DDOT":0},{"OBJECT_NAME":"STARLINK-1557","OBJECT_ID":"2020-055H","EPOCH":"2025-11-30T02:05:08.814048","MEAN_MOTION":15.0640155,"ECCENTRICITY":0.0001384,"INCLINATION":53.0532,"RA_OF_ASC_NODE":213.7504,"ARG_OF_PERICENTER":92.5478,"MEAN_ANOMALY":267.567,"EPHEMERIS_TYPE":0,"CLASSIFICATION_TYPE":"U","NORAD_CAT_ID":46034,"ELEMENT_SET_NO":999,"REV_AT_EPOCH":29385,"BSTAR":0.00010859,"MEAN_MOTION_DOT":1.336e-5,"MEAN_MOTION_DDOT":0},{"OBJECT_NAME":"STARLINK-1558","OBJECT_ID":"2020-055J","EPOCH":"2025-11-30T02:15:46.338048","MEAN_MOTION":15.06409415,"ECCENTRICITY":0.0001616,"INCLINATION":53.0534,"RA_OF_ASC_NODE":213.721,"ARG_OF_PERICENTER":91.0111,"MEAN_ANOMALY":269.1063,"EPHEMERIS_TYPE":0,"CLASSIFICATION_TYPE":"U","NORAD_CAT_ID":46035,"ELEMENT_SET_NO":999,"REV_AT_EPOCH":29388,"BSTAR":0.00034706,"MEAN_MOTION_DOT":4.893e-5,"MEAN_MOTION_DDOT":0},{"OBJECT_NAME":"STARLINK-1560","OBJECT_ID":"2020-055K","EPOCH":"2025-11-30T01:54:32.910048","MEAN_MOTION":15.06407951,"ECCENTRICITY":0.0001684,"INCLINATION":53.0534,"RA_OF_ASC_NODE":213.7879,"ARG_OF_PERICENTER":85.5807,"MEAN_ANOMALY":274.5375,"EPHEMERIS_TYPE":0,"CLASSIFICATION_TYPE":"U","NORAD_CAT_ID":46036,"ELEMENT_SET_NO":999,"REV_AT_EPOCH":29388,"BSTAR":0.00041127,"MEAN_MOTION_DOT":5.851e-5,"MEAN_MOTION_DDOT":0},{"OBJECT_NAME":"STARLINK-1567","OBJECT_ID":"2020-055M","EPOCH":"2025-11-30T02:10:27.928992","MEAN_MOTION":15.06411134,"ECCENTRICITY":0.0001576,"INCLINATION":53.0527,"RA_OF_ASC_NODE":213.7368,"ARG_OF_PERICENTER":93.4094,"MEAN_ANOMALY":266.7076,"EPHEMERIS_TYPE":0,"CLASSIFICATION_TYPE":"U","NORAD_CAT_ID":46038,"ELEMENT_SET_NO":999,"REV_AT_EPOCH":29387,"BSTAR":0.00036463,"MEAN_MOTION_DOT":5.155e-5,"MEAN_MOTION_DDOT":0},{"OBJECT_NAME":"STARLINK-1569","OBJECT_ID":"2020-055N","EPOCH":"2025-11-29T23:10:00.205824","MEAN_MOTION":15.06409712,"ECCENTRICITY":0.0001607,"INCLINATION":53.0546,"RA_OF_ASC_NODE":214.2997,"ARG_OF_PERICENTER":91.8907,"MEAN_ANOMALY":268.2266,"EPHEMERIS_TYPE":0,"CLASSIFICATION_TYPE":"U","NORAD_CAT_ID":46039,"ELEMENT_SET_NO":999,"REV_AT_EPOCH":29385,"BSTAR":0.00022537,"MEAN_MOTION_DOT":3.078e-5,"MEAN_MOTION_DDOT":0},{"OBJECT_NAME":"STARLINK-1582","OBJECT_ID":"2020-055S","EPOCH":"2025-11-30T02:31:41.447712","MEAN_MOTION":15.06403628,"ECCENTRICITY":0.0001568,"INCLINATION":53.0538,"RA_OF_ASC_NODE":213.669,"ARG_OF_PERICENTER":106.8255,"MEAN_ANOMALY":253.2906,"EPHEMERIS_TYPE":0,"CLASSIFICATION_TYPE":"U","NORAD_CAT_ID":46043,"ELEMENT_SET_NO":999,"REV_AT_EPOCH":29387,"BSTAR":0.00013309,"MEAN_MOTION_DOT":1.702e-5,"MEAN_MOTION_DDOT":0},{"OBJECT_NAME":"STARLINK-1591","OBJECT_ID":"2020-055U","EPOCH":"2025-11-29T22:22:14.051712","MEAN_MOTION":15.06401538,"ECCENTRICITY":0.0001414,"INCLINATION":53.0535,"RA_OF_ASC_NODE":214.448,"ARG_OF_PERICENTER":87.3978,"MEAN_ANOMALY":272.7172,"EPHEMERIS_TYPE":0,"CLASSIFICATION_TYPE":"U","NORAD_CAT_ID":46045,"ELEMENT_SET_NO":999,"REV_AT_EPOCH":29383,"BSTAR":0.00019346,"MEAN_MOTION_DOT":2.601e-5,"MEAN_MOTION_DDOT":0},{"OBJECT_NAME":"STARLINK-1524","OBJECT_ID":"2020-055W","EPOCH":"2025-11-30T02:01:10.438176","MEAN_MOTION":15.06417925,"ECCENTRICITY":0.0001489,"INCLINATION":53.0528,"RA_OF_ASC_NODE":203.7654,"ARG_OF_PERICENTER":108.6682,"MEAN_ANOMALY":251.4469,"EPHEMERIS_TYPE":0,"CLASSIFICATION_TYPE":"U","NORAD_CAT_ID":46047,"ELEMENT_SET_NO":999,"REV_AT_EPOCH":29401,"BSTAR":0.00010043,"MEAN_MOTION_DOT":1.215e-5,"MEAN_MOTION_DDOT":0},{"OBJECT_NAME":"STARLINK-1527","OBJECT_ID":"2020-055X","EPOCH":"2025-11-30T01:55:52.298688","MEAN_MOTION":15.06411399,"ECCENTRICITY":0.0001559,"INCLINATION":53.0535,"RA_OF_ASC_NODE":203.7815,"ARG_OF_PERICENTER":93.9805,"MEAN_ANOMALY":266.1362,"EPHEMERIS_TYPE":0,"CLASSIFICATION_TYPE":"U","NORAD_CAT_ID":46048,"ELEMENT_SET_NO":999,"REV_AT_EPOCH":29399,"BSTAR":0.000252,"MEAN_MOTION_DOT":3.475e-5,"MEAN_MOTION_DDOT":0},{"OBJECT_NAME":"STARLINK-1540","OBJECT_ID":"2020-055AA","EPOCH":"2025-11-29T21:57:00.812736","MEAN_MOTION":15.06404974,"ECCENTRICITY":0.0001612,"INCLINATION":53.0527,"RA_OF_ASC_NODE":204.5263,"ARG_OF_PERICENTER":88.4416,"MEAN_ANOMALY":271.6757,"EPHEMERIS_TYPE":0,"CLASSIFICATION_TYPE":"U","NORAD_CAT_ID":46051,"ELEMENT_SET_NO":999,"REV_AT_EPOCH":29400,"BSTAR":0.00023634,"MEAN_MOTION_DOT":3.241e-5,"MEAN_MOTION_DDOT":0}]
